{
    "links": {
        "self": "http://www.neowsapp.com/rest/v1/neo/3781234?api_key=iIulBulltgU6a56xZRHN4H3l9WmuAYTsLGpBGhQ2"
    },
    "id": "3781234",
    "neo_reference_id": "3781234",
    "name": "(2017 QV32)",
    "designation": "2017 QV32",
    "nasa_jpl_url": "http://ssd.jpl.nasa.gov/sbdb.cgi?sstr=3781234",
    "absolute_magnitude_h": 26.1,
    "estimated_diameter": {
        "kilometers": {
            "estimated_diameter_min": 0.0160160338,
            "estimated_diameter_max": 0.0358129403
        },
        "meters": {
            "estimated_diameter_min": 16.0160337979,
            "estimated_diameter_max": 35.8129403019
        },
        "miles": {
            "estimated_diameter_min": 0.0099518989,
            "estimated_diameter_max": 0.0222531225
        },
        "feet": {
            "estimated_diameter_min": 52.5460443254,
            "estimated_diameter_max": 117.4965270602
        }
    },
    "is_potentially_hazardous_asteroid": false,
    "close_approach_data": [
        {
            "close_approach_date": "1943-08-07",
            "close_approach_date_full": "1943-Aug-07 02:25",
            "epoch_date_close_approach": -833232900000,
            "relative_velocity": {
                "kilometers_per_second": "18.148931364",
                "kilometers_per_hour": "65336.1529102888",
                "miles_per_hour": "40597.3445680625"
            },
            "miss_distance": {
                "astronomical": "0.2321410141",
                "lunar": "90.3028544849",
                "kilometers": "34727801.248999967",
                "miles": "21578855.0713228646"
            },
            "orbiting_body": "Earth"
        },
        {
            "close_approach_date": "2017-09-02",
            "close_approach_date_full": "2017-Sep-02 02:33",
            "epoch_date_close_approach": 1504319580000,
            "relative_velocity": {
                "kilometers_per_second": "10.9543146097",
                "kilometers_per_hour": "39435.5325950024",
                "miles_per_hour": "24503.7063504892"
            },
            "miss_distance": {
                "astronomical": "0.0307702898",
                "lunar": "11.9696427322",
                "kilometers": "4603169.813362726",
                "miles": "2860277.0892125788"
            },
            "orbiting_body": "Earth"
        }
    ],
    "orbital_data": {
        "orbit_id": "1",
        "orbit_determination_date": "2017-08-29 14:42:09",
        "first_observation_date": "2017-08-18",
        "last_observation_date": "2017-08-29",
        "data_arc_in_days": 11,
        "observations_used": 31,
        "orbit_uncertainty": "8",
        "minimum_orbit_intersection": ".010388",
        "jupiter_tisserand_invariant": "3.119",
        "epoch_osculation": "2457988.5",
        "eccentricity": ".6251374824021436",
        "semi_major_axis": "2.571110889335445",
        "inclination": "3.486635380266434",
        "ascending_node_longitude": "336.4234791792484",
        "orbital_period": "1505.84280580952",
        "perihelion_distance": ".9638131009995484",
        "perihelion_argument": "37.68011650177501",
        "aphelion_distance": "4.178408677671341",
        "perihelion_time": "2458024.721609448832",
        "mean_anomaly": "351.3405440785239",
        "mean_motion": ".2390687783685821",
        "equinox": "J2000",
        "orbit_class": {
            "orbit_class_type": "APO",
            "orbit_class_description": "Near-Earth asteroid orbits which cross the Earth’s orbit similar to that of 1862 Apollo",
            "orbit_class_range": "a (semi-major axis) > 1.0 AU; q (perihelion) < 1.017 AU"
        }
    },
    "is_sentry_object": false
}